{
  "type": "FeatureCollection",
  "features": [
    {
      "type": "Feature",
      "properties": {
        "norad_id": 15362,
        "name": "NOVA 3",
        "group": "nnss",
        "lat": 19.58665067138924,
        "lon": 80.52517436314632,
        "alt_km": 1160.2969003896605,
        "timestamp": "2025-12-15T14:57:58.083535+00:00",
        "meta_object_name": "NOVA 3",
        "meta_object_id": "1984-110A",
        "meta_epoch": "2025-12-14T19:29:24.986400",
        "meta_mean_motion": 13.23044807,
        "meta_eccentricity": 0.0030352,
        "meta_inclination": 90.1224,
        "meta_ra_of_asc_node": 80.5592,
        "meta_arg_of_pericenter": 326.0104,
        "meta_mean_anomaly": 150.5145,
        "meta_ephemeris_type": 0,
        "meta_classification_type": "U",
        "meta_norad_cat_id": 15362,
        "meta_element_set_no": 999,
        "meta_rev_at_epoch": 98726,
        "meta_bstar": 8.1888046e-05,
        "meta_mean_motion_dot": 4.3e-07,
        "meta_mean_motion_ddot": 0,
        "tle_line1": "1 15362U 84110A   25348.81209475  .00000043  00000+0  81888-4 0  9992",
        "tle_line2": "2 15362  90.1224  80.5592 0030352 326.0104 150.5145 13.23044807987260"
      },
      "geometry": {
        "type": "Point",
        "coordinates": [
          80.52517436314632,
          19.58665067138924
        ]
      }
    },
    {
      "type": "Feature",
      "properties": {
        "norad_id": 15935,
        "name": "OSCAR 30",
        "group": "nnss",
        "lat": -56.037488747898735,
        "lon": -80.35145375605872,
        "alt_km": 1250.325709566694,
        "timestamp": "2025-12-15T14:57:58.083544+00:00",
        "meta_object_name": "OSCAR 30",
        "meta_object_id": "1985-066A",
        "meta_epoch": "2025-12-14T20:22:32.017152",
        "meta_mean_motion": 13.36078582,
        "meta_eccentricity": 0.01693766,
        "meta_inclination": 90.1653,
        "meta_ra_of_asc_node": 99.8815,
        "meta_arg_of_pericenter": 78.0202,
        "meta_mean_anomaly": 33.6979,
        "meta_ephemeris_type": 0,
        "meta_classification_type": "U",
        "meta_norad_cat_id": 15935,
        "meta_element_set_no": 999,
        "meta_rev_at_epoch": 96481,
        "meta_bstar": 0.00012434698,
        "meta_mean_motion_dot": 7.9e-07,
        "meta_mean_motion_ddot": 0,
        "tle_line1": "1 15935U 85066A   25348.84898168  .00000079  00000+0  12435-3 0  9995",
        "tle_line2": "2 15935  90.1653  99.8815 0169376  78.0202  33.6979 13.36078582964818"
      },
      "geometry": {
        "type": "Point",
        "coordinates": [
          -80.35145375605872,
          -56.037488747898735
        ]
      }
    },
    {
      "type": "Feature",
      "properties": {
        "norad_id": 15936,
        "name": "OSCAR 24",
        "group": "nnss",
        "lat": -52.31433389171906,
        "lon": 92.58830997510805,
        "alt_km": 1220.028305145669,
        "timestamp": "2025-12-15T14:57:58.083554+00:00",
        "meta_object_name": "OSCAR 24",
        "meta_object_id": "1985-066B",
        "meta_epoch": "2025-12-14T20:00:30.218976",
        "meta_mean_motion": 13.35936139,
        "meta_eccentricity": 0.01704669,
        "meta_inclination": 90.1791,
        "meta_ra_of_asc_node": 92.3424,
        "meta_arg_of_pericenter": 84.4967,
        "meta_mean_anomaly": 27.9488,
        "meta_ephemeris_type": 0,
        "meta_classification_type": "U",
        "meta_norad_cat_id": 15936,
        "meta_element_set_no": 999,
        "meta_rev_at_epoch": 96671,
        "meta_bstar": 0.00013138932,
        "meta_mean_motion_dot": 8.3e-07,
        "meta_mean_motion_ddot": 0,
        "tle_line1": "1 15936U 85066B   25348.83368309  .00000083  00000+0  13139-3 0  9991",
        "tle_line2": "2 15936  90.1791  92.3424 0170466  84.4967  27.9488 13.35936139966719"
      },
      "geometry": {
        "type": "Point",
        "coordinates": [
          92.58830997510805,
          -52.31433389171906
        ]
      }
    },
    {
      "type": "Feature",
      "properties": {
        "norad_id": 17070,
        "name": "POLAR BEAR",
        "group": "nnss",
        "lat": -13.380566320989482,
        "lon": 3.7493218831622164,
        "alt_km": 981.2371269528858,
        "timestamp": "2025-12-15T14:57:58.083564+00:00",
        "meta_object_name": "POLAR BEAR",
        "meta_object_id": "1986-088A",
        "meta_epoch": "2025-12-14T22:53:11.287104",
        "meta_mean_motion": 13.75251121,
        "meta_eccentricity": 0.00410933,
        "meta_inclination": 89.6172,
        "meta_ra_of_asc_node": 183.6852,
        "meta_arg_of_pericenter": 112.8484,
        "meta_mean_anomaly": 4.9347,
        "meta_ephemeris_type": 0,
        "meta_classification_type": "U",
        "meta_norad_cat_id": 17070,
        "meta_element_set_no": 999,
        "meta_rev_at_epoch": 96009,
        "meta_bstar": 0.00011600389,
        "meta_mean_motion_dot": 1.23e-06,
        "meta_mean_motion_ddot": 0,
        "tle_line1": "1 17070U 86088A   25348.95360286  .00000123  00000+0  11600-3 0  9992",
        "tle_line2": "2 17070  89.6172 183.6852 0041093 112.8484   4.9347 13.75251121960097"
      },
      "geometry": {
        "type": "Point",
        "coordinates": [
          3.7493218831622164,
          -13.380566320989482
        ]
      }
    },
    {
      "type": "Feature",
      "properties": {
        "norad_id": 18361,
        "name": "OSCAR 27",
        "group": "nnss",
        "lat": 45.43317735789173,
        "lon": -100.23949842134476,
        "alt_km": 1074.3549692402185,
        "timestamp": "2025-12-15T14:57:58.083573+00:00",
        "meta_object_name": "OSCAR 27",
        "meta_object_id": "1987-080A",
        "meta_epoch": "2025-12-14T18:38:56.471136",
        "meta_mean_motion": 13.44907109,
        "meta_eccentricity": 0.01030621,
        "meta_inclination": 90.3743,
        "meta_ra_of_asc_node": 79.3486,
        "meta_arg_of_pericenter": 217.911,
        "meta_mean_anomaly": 141.4751,
        "meta_ephemeris_type": 0,
        "meta_classification_type": "U",
        "meta_norad_cat_id": 18361,
        "meta_element_set_no": 999,
        "meta_rev_at_epoch": 87584,
        "meta_bstar": 0.00016951138,
        "meta_mean_motion_dot": 1.1e-06,
        "meta_mean_motion_ddot": 0,
        "tle_line1": "1 18361U 87080A   25348.77704249  .00000110  00000+0  16951-3 0  9990",
        "tle_line2": "2 18361  90.3743  79.3486 0103062 217.9110 141.4751 13.44907109875840"
      },
      "geometry": {
        "type": "Point",
        "coordinates": [
          -100.23949842134476,
          45.43317735789173
        ]
      }
    },
    {
      "type": "Feature",
      "properties": {
        "norad_id": 18362,
        "name": "OSCAR 29",
        "group": "nnss",
        "lat": 38.00051725918582,
        "lon": -99.86726267526119,
        "alt_km": 1098.5381382569458,
        "timestamp": "2025-12-15T14:57:58.083583+00:00",
        "meta_object_name": "OSCAR 29",
        "meta_object_id": "1987-080B",
        "meta_epoch": "2025-12-14T19:13:05.047968",
        "meta_mean_motion": 13.44448768,
        "meta_eccentricity": 0.01040327,
        "meta_inclination": 90.3753,
        "meta_ra_of_asc_node": 79.8085,
        "meta_arg_of_pericenter": 241.1833,
        "meta_mean_anomaly": 241.731,
        "meta_ephemeris_type": 0,
        "meta_classification_type": "U",
        "meta_norad_cat_id": 18362,
        "meta_element_set_no": 999,
        "meta_rev_at_epoch": 87537,
        "meta_bstar": 0.00015108872,
        "meta_mean_motion_dot": 9.8e-07,
        "meta_mean_motion_ddot": 0,
        "tle_line1": "1 18362U 87080B   25348.80075287  .00000098  00000+0  15109-3 0  9997",
        "tle_line2": "2 18362  90.3753  79.8085 0104032 241.1833 241.7310 13.44448768875375"
      },
      "geometry": {
        "type": "Point",
        "coordinates": [
          -99.86726267526119,
          38.00051725918582
        ]
      }
    },
    {
      "type": "Feature",
      "properties": {
        "norad_id": 19070,
        "name": "OSCAR 23",
        "group": "nnss",
        "lat": 76.26174930455953,
        "lon": -162.2029900763066,
        "alt_km": 1092.6111838044426,
        "timestamp": "2025-12-15T14:57:58.083592+00:00",
        "meta_object_name": "OSCAR 23",
        "meta_object_id": "1988-033A",
        "meta_epoch": "2025-12-14T15:32:59.356608",
        "meta_mean_motion": 13.27787309,
        "meta_eccentricity": 0.01896852,
        "meta_inclination": 90.3212,
        "meta_ra_of_asc_node": 16.4519,
        "meta_arg_of_pericenter": 174.6182,
        "meta_mean_anomaly": 310.0311,
        "meta_ephemeris_type": 0,
        "meta_classification_type": "U",
        "meta_norad_cat_id": 19070,
        "meta_element_set_no": 999,
        "meta_rev_at_epoch": 82278,
        "meta_bstar": 0.00017534093,
        "meta_mean_motion_dot": 9.6e-07,
        "meta_mean_motion_ddot": 0,
        "tle_line1": "1 19070U 88033A   25348.64790922  .00000096  00000+0  17534-3 0  9997",
        "tle_line2": "2 19070  90.3212  16.4519 0189685 174.6182 310.0311 13.27787309822781"
      },
      "geometry": {
        "type": "Point",
        "coordinates": [
          -162.2029900763066,
          76.26174930455953
        ]
      }
    }
  ]
}